#dP2023  1 29 12  0  0.00000000      96 __u+U ITR00 EXT  IAC
## 2247  43200.00000000   900.00000000 59973 0.5000000000000
+  119   C06C07C08C09C10C11C12C13C14C16C19C20C21C22C23C24C25
+        C26C27C28C29C30C32C33C34C35C36C37C38C39C40C41C42C43
+        C44C45C46E01E02E03E04E05E07E08E09E10E11E12E13E14E15
+        E18E19E21E24E25E26E27E30E31E33E34E36G01G02G03G04G05
+        G06G07G08G09G10G11G12G13G14G15G16G17G18G19G20G21G22
+        G23G24G25G26G27G29G30G31G32J02J03J04R01R02R03R04R05
+        R07R08R09R11R12R13R14R15R16R17R18R19R20R21R22R24R25
++         0  0  0  0  0  0  0  0  0  0  0  0  0  0  0  0  0
++         0  0  0  0  0  0  0  0  0  0  0  0  0  0  0  0  0
++         0  0  0  0  0  0  0  0  0  0  0  0  0  0  0  0  0
++         0  0  0  0  0  0  0  0  0  0  0  0  0  0  0  0  0
++         0  0  0  0  0  0  0  0  0  0  0  0  0  0  0  0  0
++         0  0  0  0  0  0  0  0  0  0  0  0  0  0  0  0  0
++         0  0  0  0  0  0  0  0  0  0  0  0  0  0  0  0  0
%c M  cc GPS ccc cccc cccc cccc cccc ccccc ccccc ccccc ccccc
%c cc cc ccc ccc cccc cccc cccc cccc ccccc ccccc ccccc ccccc
%f  0.0000000  0.000000000  0.00000000000  0.000000000000000
%f  0.0000000  0.000000000  0.00000000000  0.000000000000000
%i    0    0    0    0      0      0      0      0         0
%i    0    0    0    0      0      0      0      0         0
/* IAC                                ULTRA-RAPID PREDICTION
/* S/V CLOCKS ARE ALIGNED TO GNSS TIME                      
/* G:C1WC2W R:C1PC2P E:C1XC5X C:C2IC6I J:C1CC2S             
/* PCV:IGS20_2239 OL/AL:FES2004  NONE     YN ORB:CoN CLK:CoN
*  2023 01 29 21  0  0.00000000
PC06  -7610.836675  40344.610310  10193.305830   -188.707900
PC07  -6023.450623  26766.284954 -31947.111586    249.877730
PC08 -18575.372312  28166.675704  25162.857795    527.686168
PC09  -3633.733287  42265.996101   2110.346771    463.298759
PC10    897.289934  28415.192144 -30732.894762     22.276532
PC11  15560.703695    902.062076  23217.761586   -149.996658
PC12  12877.055186  19811.582652  14886.880655    423.934820
PC13 -12633.214304  28894.511088  28011.038891    195.277250
PC14  26071.478168   2716.729103  -9478.632259    421.605364
PC16  -8197.277099  39854.344448  11795.427013     71.157653
PC19 -21600.647939   4453.497336  17134.038263   -895.357928
PC20 -26563.294301  -8342.565546   2092.192594    746.620286
PC21  15766.494271  17110.823351  15411.292794   -913.587938
PC22  -3965.302185  15288.943318  23006.205096   -659.936932
PC23  13609.020664 -21642.649091  11191.495212   -873.788271
PC24  19266.668398   2849.983078 -20017.181471   -477.394126
PC25  23038.478304 -14846.195649  -5330.356985     63.462830
PC26   5568.075973  16161.762284 -22070.305269    -71.345062
PC27  -9104.696635 -25334.182673  -7335.803634     88.980442
PC28   2473.711011 -26182.534208   9338.386483     64.541242
PC29 -13225.521955  11386.991574 -21779.642100     74.078453
PC30 -16306.706649 -10446.746141 -20086.998653      1.247911
PC32 -15867.046758 -16993.011396 -15422.691408   -636.086647
PC33  21632.231096  -4520.277128 -17026.648702   -876.596548
PC34  16448.527516   9172.219838  20592.622958     94.597578
PC35  -2438.385265  25789.649698 -10441.667385    689.327743
PC36 -23493.757492  13821.090142   5968.060759   -660.568200
PC37  -3743.673078 -17149.429172  21703.331300   -834.075876
PC38 -24537.089478  29540.772269  17272.355956     55.278146
PC39 -10393.692202  36507.528886  18610.834260     -1.612250
PC40 -10015.828646  20771.725633 -35295.150250    -13.777636
PC41   4572.501304 -15092.207955 -22969.113159   -550.770754
PC42  26341.820669   9146.784969   -761.667837   -866.666919
PC43  13688.539785 -10487.366385  21928.976802      4.564851
PC44   9941.577154  25114.608490   7077.237521    192.825331
PC45 -13292.288939  21610.176006 -11599.619644    -53.810023
PC46 -20173.886778  -1185.658242  19216.738439    -29.825458
PE01 -25941.225360  10411.504816  -9723.254030   -599.138210
PE02  25744.481204 -10617.414753  10060.927769     17.668375
PE03  14354.733162  -9246.805667 -24181.903561   -644.839510
PE04   1976.695383  23174.078368  18316.675441    -46.927573
PE05  22633.518992  10471.921668 -15945.920721   -100.402118
PE07 -17525.497835 -23806.432573  -1551.377504    -18.959028
PE08  -2003.235683 -23048.564113 -18468.110915    -27.544300
PE09  17462.761125  23829.978509   1755.871635   -817.606246
PE10  -1136.131796  26468.366676  13202.133303   -508.634439
PE11   6602.743874  20038.879289  20765.833214    670.302783
PE12  -8040.396649  28172.224460   4309.210585   -402.682696
PE13  -5967.961854 -20685.013671 -20300.564021    429.613457
PE14 -10732.338341 -26849.419569   5823.350969    127.403661
PE15   8225.118539 -28150.888418  -3960.590093    690.837206
PE18   -719.649124  23090.491445 -14788.271814   -451.691297
PE19 -16055.998556   6546.296411  23994.189869  -3363.967322
PE21 -28595.645595  -1065.620504   7545.444891   -509.130440
PE24  14310.506096  13403.574889 -22203.272034  -1085.325232
PE25  28519.124873   1286.400521  -7848.614824   -598.261759
PE26 -16904.445280   -342.288099 -24285.615553      3.068659
PE27 -15185.096015 -12926.447231  21865.704767   -499.656924
PE30   7863.771029 -17022.044345  22894.340133  -1200.289689
PE31  -7003.836111  17047.364669 -23158.934893   -514.636362
PE33 -17447.431801  18960.772049 -14569.264943   -453.171795
PE34  17382.044455 -19115.697528  14448.708447    -27.390562
PE36  16492.985060   1208.704707  24557.046547     -4.653947
PG01  14068.886559 -21744.919431   4655.373118    218.560804
PG02 -10418.123236  24456.604220  -1670.054137   -624.259533
PG03  16755.784931 -12514.491373 -16428.692451   -368.522635
PG04   6364.190152 -16030.446203 -20162.223574    -38.582946
PG05 -25895.605885   5366.443272   2906.601634   -113.891409
PG06  -9767.875569 -12199.300776 -21389.089530    565.757423
PG07   4588.776696 -24487.939312   8884.724244    250.410031
PG08  14918.597438  -4957.164551  21400.068893   -105.987508
PG09  -4250.496137 -22352.071557 -13740.264392   -227.750854
PG10  14614.824302  11704.895935  19132.393123    -22.502125
PG11 -16805.989447   1264.110299 -20508.949662    -90.699190
PG12 -18725.902841  10965.374560 -15523.816591   -334.039234
PG13 -17145.648643  -3736.603389  19820.058197    467.599298
PG14 -11623.282457 -13540.953478  19715.321075    -38.994887
PG15 -14332.641379   7186.609014  20756.310980      8.893573
PG16  26810.750318    -88.378871    331.556635   -522.197750
PG17 -12530.932358 -23303.304018   2033.995884    696.683987
PG18  -2911.492181  23666.306392  11551.817885   -119.098733
PG19 -17228.214318 -18216.338647  -9392.054330    270.711084
PG20 -24981.972350   -103.943754  -8669.810897    453.963125
PG21  16198.129597 -15705.273359  13922.978436    153.727943
PG22  18117.037323  15617.044333 -11292.533511    416.280565
PG23   1930.457901  14843.692225  21942.848075      4.104273
PG24 -14493.995536  19907.069387   9036.586527    -51.458900
PG25  -9028.008921  15155.272515 -20085.285645    415.618884
PG26  23143.713352   5662.116634 -12192.962088    240.960968
PG27  19138.185461   6976.722437  17032.475831    114.946783
PG29    127.976890  21293.732283 -15869.509138   -583.234459
PG30  -5283.457011 -19053.905809  17704.588863   -531.924707
PG31  11815.044567  10437.471293 -21491.741803   -207.753416
PG32  15860.098918  21421.806457   -813.548538   -379.890763
PJ02 -34855.930062  16189.111844 -12758.011318     -0.726608
PJ03 -20702.135854  30826.975385 -15228.761299      0.028393
PJ04 -26116.556458  28164.540977  23633.071146    121.045262
PR01 -19840.820770  -2523.397586  15840.216513     22.108053
PR02  -4959.759675   9672.167349  23121.671390    -23.315977
PR03  11871.130724  15960.047680  16053.088786     71.594633
PR04  21723.449747  13383.698523    297.761592    173.890423
PR05  19824.208977   3599.368818 -15648.601960    106.923524
PR07 -12497.169967 -15988.194980 -15380.614507     48.908963
PR08 -21848.142775 -13131.560289     22.518134    -69.253678
PR09  16030.728836 -16091.112356  11545.642158    101.260291
PR11 -14709.855781  -2838.781670  20653.513521      1.393781
PR12 -22852.854375   9558.695671   6059.409696     24.667194
PR13 -17431.233490  15677.780519 -10064.909737    -31.457244
PR14   -555.056313  12685.385358 -22120.823384     24.302741
PR15  15568.365591   2318.181860 -20061.248818     91.416045
PR16  22732.168322  -9604.163318  -6398.980275     10.614921
PR17   2218.321244  24665.108069   6057.082686    600.195061
PR18   8370.008196  14083.603848  19592.658398     64.230350
PR19  10435.830205  -2133.375469  23182.467946   -220.002091
PR20   6720.682043 -21347.874958  12207.623591    -86.763213
PR21  -2777.373192 -24177.786921  -7671.772403   -369.282658
PR22  -8444.974460 -13573.507717 -19841.028059     68.779826
PR24  -6017.976063  21957.821269 -11471.909318    143.078707
PR25   -934.605293 -24864.774256  -5646.919708     52.973789
EOF
